
# Worst residual: 195.32 km
# MJD 59777.000000 (2022 Jul 17  0:00)
A10JZJ9 = A10KdAe = A10JutX
1 89946U 00000ACB 22198.49919926  .00000000  00000-0  00000-0 0 17312
2 89946 024.5034 016.7023 3962786 116.5687 285.4519 00.95080471    08

# Worst residual: 200.95 km
# MJD 59778.000000 (2022 Jul 18  0:00)
A10JZJ9 = A10KdAe = A10JutX
1 89946U 00000ACB 22199.49919926  .00000000  00000-0  00000-0 0 17313
2 89946 024.4984 016.6956 3989736 117.8603 265.8986 00.94988372    07

# Worst residual: 165.09 km
# MJD 59779.000000 (2022 Jul 19  0:00)
A10JZJ9 = A10KdAe = A10JutX
1 89946U 00000ACB 22200.49919926  .00000000  00000-0  00000-0 0 17316
2 89946 024.5169 016.6191 4013539 119.2034 246.4527 00.94901060    03

# Worst residual: 106.53 km
# MJD 59780.000000 (2022 Jul 20  0:00)
A10JZJ9 = A10KdAe = A10JutX
1 89946U 00000ACB 22201.49919926  .00000000  00000-0  00000-0 0 17317
2 89946 024.5250 016.5758 4035630 120.5462 227.0407 00.94819625    05

# Worst residual: 103.22 km
# MJD 59781.000000 (2022 Jul 21  0:00)
A10JZJ9 = A10KdAe = A10JutX
1 89946U 00000ACB 22202.49919926  .00000000  00000-0  00000-0 0 17318
2 89946 024.5287 016.5391 4059508 121.9360 207.6408 00.94764644    05

# Worst residual: 80.52 km
# MJD 59782.000000 (2022 Jul 22  0:00)
A10JZJ9 = A10KdAe = A10JutX
1 89946U 00000ACB 22203.49919926  .00000000  00000-0  00000-0 0 17319
2 89946 024.5425 016.4742 4087702 123.3565 188.3079 00.94739422    03

# Worst residual: 53.47 km
# MJD 59783.000000 (2022 Jul 23  0:00)
A10JZJ9 = A10KdAe = A10JutX
1 89946U 00000ACB 22204.49919926  .00000000  00000-0  00000-0 0 17310
2 89946 024.5537 016.4364 4121339 124.7576 169.0437 00.94758073    06

# Worst residual: 100.18 km
# MJD 59784.000000 (2022 Jul 24  0:00)
A10JZJ9 = A10KdAe = A10JutX
1 89946U 00000ACB 22205.49919926  .00000000  00000-0  00000-0 0 17311
2 89946 024.5642 016.3893 4159420 126.1091 149.9096 00.94818242    02

# Worst residual: 154.16 km
# MJD 59785.000000 (2022 Jul 25  0:00)
A10JZJ9 = A10KdAe = A10JutX
1 89946U 00000ACB 22206.49919926  .00000000  00000-0  00000-0 0 17312
2 89946 024.5753 016.3428 4198287 127.3997 130.9030 00.94903907    02

# Worst residual: 172.99 km
# MJD 59786.000000 (2022 Jul 26  0:00)
A10JZJ9 = A10KdAe = A10JutX
1 89946U 00000ACB 22207.49919926  .00000000  00000-0  00000-0 0 17313
2 89946 024.5801 016.3051 4235967 128.6366 111.9929 00.95015868    06

# Worst residual: 169.95 km
# MJD 59787.000000 (2022 Jul 27  0:00)
A10JZJ9 = A10KdAe = A10JutX
1 89946U 00000ACB 22208.49919926  .00000000  00000-0  00000-0 0 17314
2 89946 024.6004 016.2491 4271534 129.8681 093.1644 00.95125934    03

# Worst residual: 184.04 km
# MJD 59788.000000 (2022 Jul 28  0:00)
A10JZJ9 = A10KdAe = A10JutX
1 89946U 00000ACB 22209.49919926  .00000000  00000-0  00000-0 0 17315
2 89946 024.6132 016.2106 4306317 131.0775 074.3688 00.95247141    09

# Worst residual: 184.64 km
# MJD 59789.000000 (2022 Jul 29  0:00)
A10JZJ9 = A10KdAe = A10JutX
1 89946U 00000ACB 22210.49919926  .00000000  00000-0  00000-0 0 17317
2 89946 024.6301 016.1501 4337002 132.3261 055.6016 00.95367020    00

# Worst residual: 163.31 km
# MJD 59790.000000 (2022 Jul 30  0:00)
A10JZJ9 = A10KdAe = A10JutX
1 89946U 00000ACB 22211.49919926  .00000000  00000-0  00000-0 0 17318
2 89946 024.6503 016.0932 4368505 133.5967 036.8387 00.95465660    00

# Worst residual: 133.55 km
# MJD 59791.000000 (2022 Jul 31  0:00)
A10JZJ9 = A10KdAe = A10JutX
1 89946U 00000ACB 22212.49919926  .00000000  00000-0  00000-0 0 17319
2 89946 024.6635 016.0445 4402452 134.8582 018.1072 00.95548686    06

# Worst residual: 103.24 km
# MJD 59792.000000 (2022 Aug  1  0:00)
A10JZJ9 = A10KdAe = A10JutX
1 89946U 00000ACB 22213.49919926  .00000000  00000-0  00000-0 0 17310
2 89946 024.6812 015.9898 4438218 136.1325 359.4174 00.95592055    05

# Worst residual: 121.58 km
# MJD 59793.000000 (2022 Aug  2  0:00)
A10JZJ9 = A10KdAe = A10JutX
1 89946U 00000ACB 22214.49919926  .00000000  00000-0  00000-0 0 17311
2 89946 024.6994 015.9344 4476174 137.3855 340.8083 00.95598620    03

# Worst residual: 145.59 km
# MJD 59794.000000 (2022 Aug  3  0:00)
A10JZJ9 = A10KdAe = A10JutX
1 89946U 00000ACB 22215.49919926  .00000000  00000-0  00000-0 0 17312
2 89946 024.7076 015.8720 4514931 138.6149 322.2945 00.95590507    03

# Worst residual: 178.98 km
# MJD 59795.000000 (2022 Aug  4  0:00)
A10JZJ9 = A10KdAe = A10JutX
1 89946U 00000ACB 22216.49919926  .00000000  00000-0  00000-0 0 17313
2 89946 024.7366 015.8229 4554959 139.7719 303.9329 00.95515408    07

# Worst residual: 183.22 km
# MJD 59796.000000 (2022 Aug  5  0:00)
A10JZJ9 = A10KdAe = A10JutX
1 89946U 00000ACB 22217.49919926  .00000000  00000-0  00000-0 0 17314
2 89946 024.7477 015.8018 4593874 140.8594 285.7042 00.95436131    03

# Worst residual: 185.19 km
# MJD 59797.000000 (2022 Aug  6  0:00)
A10JZJ9 = A10KdAe = A10JutX
1 89946U 00000ACB 22218.49919926  .00000000  00000-0  00000-0 0 17315
2 89946 024.7756 015.7076 4629149 142.0055 267.5562 00.95360814    06

# Worst residual: 196.09 km
# MJD 59798.000000 (2022 Aug  7  0:00)
A10JZJ9 = A10KdAe = A10JutX
1 89946U 00000ACB 22219.49919926  .00000000  00000-0  00000-0 0 17316
2 89946 024.7967 015.6598 4660579 143.1027 249.4957 00.95287203    08

# Worst residual: 149.59 km
# MJD 59799.000000 (2022 Aug  8  0:00)
A10JZJ9 = A10KdAe = A10JutX
1 89946U 00000ACB 22220.49919926  .00000000  00000-0  00000-0 0 17318
2 89946 024.8191 015.6062 4690465 144.2048 231.5148 00.95209671    03
